$$SOE
2459580.500000000, A.D. 2022-Jan-01 00:00:00.0000, -5.397453972686048E+09, -3.175539200062080E+09, 2.198772510497051E+08,
2459587.500000000, A.D. 2022-Jan-08 00:00:00.0000, -5.396129901880307E+09, -3.178053759419527E+09, 2.198280304691927E+08,
2459594.500000000, A.D. 2022-Jan-15 00:00:00.0000, -5.394804845496986E+09, -3.180567675579737E+09, 2.197787680134013E+08,
2459601.500000000, A.D. 2022-Jan-22 00:00:00.0000, -5.393478799951497E+09, -3.183080949582469E+09, 2.197294633187567E+08,
2459608.500000000, A.D. 2022-Jan-29 00:00:00.0000, -5.392151761080394E+09, -3.185593579991319E+09, 2.196801161288246E+08,
2459615.500000000, A.D. 2022-Feb-05 00:00:00.0000, -5.390823726348445E+09, -3.188105563565393E+09, 2.196307264420742E+08,
2459622.500000000, A.D. 2022-Feb-12 00:00:00.0000, -5.389494694882389E+09, -3.190616896999221E+09, 2.195812943745975E+08,
2459629.500000000, A.D. 2022-Feb-19 00:00:00.0000, -5.388164666656156E+09, -3.193127577361916E+09, 2.195318200527838E+08,
2459636.500000000, A.D. 2022-Feb-26 00:00:00.0000, -5.386833642138887E+09, -3.195637601958587E+09, 2.194823035969650E+08,
2459643.500000000, A.D. 2022-Mar-05 00:00:00.0000, -5.385501622246533E+09, -3.198146968230855E+09, 2.194327451307571E+08,
2459650.500000000, A.D. 2022-Mar-12 00:00:00.0000, -5.384168608375164E+09, -3.200655673762124E+09, 2.193831447900988E+08,
2459657.500000000, A.D. 2022-Mar-19 00:00:00.0000, -5.382834602444961E+09, -3.203163716359415E+09, 2.193335027274526E+08,
2459664.500000000, A.D. 2022-Mar-26 00:00:00.0000, -5.381499606932475E+09, -3.205671094217524E+09, 2.192838191083424E+08,
2459671.500000000, A.D. 2022-Apr-02 00:00:00.0000, -5.380163624823354E+09, -3.208177806221108E+09, 2.192340940891801E+08,
2459678.500000000, A.D. 2022-Apr-09 00:00:00.0000, -5.378826659213473E+09, -3.210683852379653E+09, 2.191843277515970E+08,
2459685.500000000, A.D. 2022-Apr-16 00:00:00.0000, -5.377488712201360E+09, -3.213189233741023E+09, 2.191345200137888E+08,
2459692.500000000, A.D. 2022-Apr-23 00:00:00.0000, -5.376149784340762E+09, -3.215693950699131E+09, 2.190846707237399E+08,
2459699.500000000, A.D. 2022-Apr-30 00:00:00.0000, -5.374809876523524E+09, -3.218198001940853E+09, 2.190347799222844E+08,
2459706.500000000, A.D. 2022-May-07 00:00:00.0000, -5.373468991230030E+09, -3.220701386005602E+09, 2.189848478337399E+08,
2459713.500000000, A.D. 2022-May-14 00:00:00.0000, -5.372127131757858E+09, -3.223204102419319E+09, 2.189348747049170E+08,
2459720.500000000, A.D. 2022-May-21 00:00:00.0000, -5.370784301459681E+09, -3.225706151644049E+09, 2.188848607407966E+08,
2459727.500000000, A.D. 2022-May-28 00:00:00.0000, -5.369440503469250E+09, -3.228207534801824E+09, 2.188348061024593E+08,
2459734.500000000, A.D. 2022-Jun-04 00:00:00.0000, -5.368095740638322E+09, -3.230708253485572E+09, 2.187847109163113E+08,
2459741.500000000, A.D. 2022-Jun-11 00:00:00.0000, -5.366750015539826E+09, -3.233208309654719E+09, 2.187345752815514E+08,
2459748.500000000, A.D. 2022-Jun-18 00:00:00.0000, -5.365403330498533E+09, -3.235707705601997E+09, 2.186843992734809E+08,
2459755.500000000, A.D. 2022-Jun-25 00:00:00.0000, -5.364055687619790E+09, -3.238206444024408E+09, 2.186341829373238E+08,
2459762.500000000, A.D. 2022-Jul-02 00:00:00.0000, -5.362707088682185E+09, -3.240704528263829E+09, 2.185839262549895E+08,
2459769.500000000, A.D. 2022-Jul-09 00:00:00.0000, -5.361357534503893E+09, -3.243201962540051E+09, 2.185336290635773E+08,
2459776.500000000, A.D. 2022-Jul-16 00:00:00.0000, -5.360007023837805E+09, -3.245698751093287E+09, 2.184832910193166E+08,
2459783.500000000, A.D. 2022-Jul-23 00:00:00.0000, -5.358655553993850E+09, -3.248194896158337E+09, 2.184329118151335E+08,
2459790.500000000, A.D. 2022-Jul-30 00:00:00.0000, -5.357303123104438E+09, -3.250690398124284E+09, 2.183824913702546E+08,
2459797.500000000, A.D. 2022-Aug-06 00:00:00.0000, -5.355949730434196E+09, -3.253185257231587E+09, 2.183320297149500E+08,
2459804.500000000, A.D. 2022-Aug-13 00:00:00.0000, -5.354595375557263E+09, -3.255679474052110E+09, 2.182815268712543E+08,
2459811.500000000, A.D. 2022-Aug-20 00:00:00.0000, -5.353240057971454E+09, -3.258173049255478E+09, 2.182309828327290E+08,
2459818.500000000, A.D. 2022-Aug-27 00:00:00.0000, -5.351883777081129E+09, -3.260665983388350E+09, 2.181803975778668E+08,
2459825.500000000, A.D. 2022-Sep-03 00:00:00.0000, -5.350526532300894E+09, -3.263158276777126E+09, 2.181297710855441E+08,
2459832.500000000, A.D. 2022-Sep-10 00:00:00.0000, -5.349168323190000E+09, -3.265649929530189E+09, 2.180791033463469E+08,
2459839.500000000, A.D. 2022-Sep-17 00:00:00.0000, -5.347809149588026E+09, -3.268140941641404E+09, 2.180283943669710E+08,
2459846.500000000, A.D. 2022-Sep-24 00:00:00.0000, -5.346449011691442E+09, -3.270631313245780E+09, 2.179776441579798E+08,
2459853.500000000, A.D. 2022-Oct-01 00:00:00.0000, -5.345087909831033E+09, -3.273121045049553E+09, 2.179268526809623E+08,
2459860.500000000, A.D. 2022-Oct-08 00:00:00.0000, -5.343725843542910E+09, -3.275610138412651E+09, 2.178760197602247E+08,
2459867.500000000, A.D. 2022-Oct-15 00:00:00.0000, -5.342362810864923E+09, -3.278098593884328E+09, 2.178251451422420E+08,
2459874.500000000, A.D. 2022-Oct-22 00:00:00.0000, -5.340998810040087E+09, -3.280586409875888E+09, 2.177742287650954E+08,
2459881.500000000, A.D. 2022-Oct-29 00:00:00.0000, -5.339633841129175E+09, -3.283073584063950E+09, 2.177232707965713E+08,
2459888.500000000, A.D. 2022-Nov-05 00:00:00.0000, -5.338267905433203E+09, -3.285560114783151E+09, 2.176722714720857E+08,
2459895.500000000, A.D. 2022-Nov-12 00:00:00.0000, -5.336901004690578E+09, -3.288046001141021E+09, 2.176212310159737E+08,
2459902.500000000, A.D. 2022-Nov-19 00:00:00.0000, -5.335533140768340E+09, -3.290531242809176E+09, 2.175701496339732E+08,
2459909.500000000, A.D. 2022-Nov-26 00:00:00.0000, -5.334164315585251E+09, -3.293015839888134E+09, 2.175190275202231E+08,
2459916.500000000, A.D. 2022-Dec-03 00:00:00.0000, -5.332794531100681E+09, -3.295499792857304E+09, 2.174678648625104E+08,
2459923.500000000, A.D. 2022-Dec-10 00:00:00.0000, -5.331423789323812E+09, -3.297983102591446E+09, 2.174166618430722E+08,
2459930.500000000, A.D. 2022-Dec-17 00:00:00.0000, -5.330052092318402E+09, -3.300465770468588E+09, 2.173654186306199E+08,
2459937.500000000, A.D. 2022-Dec-24 00:00:00.0000, -5.328679442093741E+09, -3.302947798635252E+09, 2.173141353482050E+08,
2459944.500000000, A.D. 2022-Dec-31 00:00:00.0000, -5.327305840024146E+09, -3.305429190321463E+09, 2.172628119929423E+08,
2459951.500000000, A.D. 2023-Jan-07 00:00:00.0000, -5.325931285674305E+09, -3.307909949243150E+09, 2.172114483750376E+08,
2459958.500000000, A.D. 2023-Jan-14 00:00:00.0000, -5.324555776997463E+09, -3.310390077595147E+09, 2.171600442972145E+08,
2459965.500000000, A.D. 2023-Jan-21 00:00:00.0000, -5.323179312551220E+09, -3.312869575807399E+09, 2.171085997744778E+08,
2459972.500000000, A.D. 2023-Jan-28 00:00:00.0000, -5.321801892062918E+09, -3.315348444259894E+09, 2.170571149418646E+08,
2459979.500000000, A.D. 2023-Feb-04 00:00:00.0000, -5.320423515553186E+09, -3.317826683928566E+09, 2.170055899168336E+08,
2459986.500000000, A.D. 2023-Feb-11 00:00:00.0000, -5.319044182812850E+09, -3.320304296155700E+09, 2.169540247652211E+08,
2459993.500000000, A.D. 2023-Feb-18 00:00:00.0000, -5.317663893296371E+09, -3.322781282367879E+09, 2.169024195094264E+08,
2460000.500000000, A.D. 2023-Feb-25 00:00:00.0000, -5.316282646168958E+09, -3.325257643903100E+09, 2.168507741416245E+08,
2460007.500000000, A.D. 2023-Mar-04 00:00:00.0000, -5.314900440404935E+09, -3.327733381928003E+09, 2.167990886343384E+08,
2460014.500000000, A.D. 2023-Mar-11 00:00:00.0000, -5.313517274908613E+09, -3.330208497444499E+09, 2.167473629459695E+08,
2460021.500000000, A.D. 2023-Mar-18 00:00:00.0000, -5.312133148610361E+09, -3.332682991434994E+09, 2.166955970131259E+08,
2460028.500000000, A.D. 2023-Mar-25 00:00:00.0000, -5.310748060334403E+09, -3.335156865193209E+09, 2.166437907074742E+08,
2460035.500000000, A.D. 2023-Apr-01 00:00:00.0000, -5.309362008013610E+09, -3.337630120446940E+09, 2.165919437505323E+08,
2460042.500000000, A.D. 2023-Apr-08 00:00:00.0000, -5.307974987866531E+09, -3.340102758047606E+09, 2.165400557431681E+08,
2460049.500000000, A.D. 2023-Apr-15 00:00:00.0000, -5.306586995873550E+09, -3.342574776332553E+09, 2.164881264339303E+08,
2460056.500000000, A.D. 2023-Apr-22 00:00:00.0000, -5.305198029742905E+09, -3.345046172211994E+09, 2.164361558109841E+08,
2460063.500000000, A.D. 2023-Apr-29 00:00:00.0000, -5.303808088631433E+09, -3.347516942727585E+09, 2.163841439509195E+08,
2460070.500000000, A.D. 2023-May-06 00:00:00.0000, -5.302417172380262E+09, -3.349987085301421E+09, 2.163320909314226E+08,
2460077.500000000, A.D. 2023-May-13 00:00:00.0000, -5.301025281242150E+09, -3.352456597568894E+09, 2.162799968242799E+08,
2460084.500000000, A.D. 2023-May-20 00:00:00.0000, -5.299632415866336E+09, -3.354925477286386E+09, 2.162278617069209E+08,
2460091.500000000, A.D. 2023-May-27 00:00:00.0000, -5.298238577347362E+09, -3.357393722343181E+09, 2.161756856721299E+08,
2460098.500000000, A.D. 2023-Jun-03 00:00:00.0000, -5.296843767280297E+09, -3.359861330851514E+09, 2.161234688324832E+08,
2460105.500000000, A.D. 2023-Jun-10 00:00:00.0000, -5.295447987798573E+09, -3.362328301328474E+09, 2.160712113159339E+08,
2460112.500000000, A.D. 2023-Jun-17 00:00:00.0000, -5.294051241505363E+09, -3.364794633029788E+09, 2.160189132391891E+08,
2460119.500000000, A.D. 2023-Jun-24 00:00:00.0000, -5.292653530978551E+09, -3.367260326379837E+09, 2.159665746338108E+08,
2460126.500000000, A.D. 2023-Jul-01 00:00:00.0000, -5.291254857596134E+09, -3.369725382669720E+09, 2.159141953692957E+08,
2460133.500000000, A.D. 2023-Jul-08 00:00:00.0000, -5.289855221356039E+09, -3.372189802201290E+09, 2.158617752936721E+08,
2460140.500000000, A.D. 2023-Jul-15 00:00:00.0000, -5.288454622967114E+09, -3.374653583706869E+09, 2.158093144773531E+08,
$$EOE